H1 CPF 01  gfz 2021 07 17 00  6981 terrasarx 
H2 0702601  6201 31698    2021 07 17 00 59 42 2021 07 22 00 00 42   120 1 1  0 0 0
H9
10 0 59416  22302.000000  0   -2318207.962    943114.266   6407322.106
10 0 59416  22422.000000  0   -1433029.163    949311.604   6659996.906
10 0 59416  22542.000000  0    -523022.011    923236.743   6795645.058
10 0 59416  22662.000000  0     395372.298    865055.930   6811901.136
10 0 59416  22782.000000  0    1305580.366    775782.148   6708482.601
10 0 59416  22902.000000  0    2191194.287    657257.763   6487194.519
10 0 59416  23022.000000  0    3036266.392    512117.933   6151900.562
10 0 59416  23142.000000  0    3825597.828    343735.307   5708460.470
10 0 59416  23262.000000  0    4545015.034    156146.919   5164633.085
10 0 59416  23382.000000  0    5181629.282    -46035.793   4529946.679
10 0 59416  23502.000000  0    5724075.339   -257732.064   3815537.738
10 0 59416  23622.000000  0    6162724.661   -473508.974   3033959.228
10 0 59416  23742.000000  0    6489867.364   -687709.118   2198960.111
10 0 59416  23862.000000  0    6699856.018   -894585.867   1325240.014
10 0 59416  23982.000000  0    6789210.136  -1088443.024    428186.289
10 0 59416  24102.000000  0    6756679.744  -1263774.898   -476404.540
10 0 59416  24222.000000  0    6603261.545  -1415403.659  -1372615.006
10 0 59416  24342.000000  0    6332169.881  -1538609.642  -2244695.144
10 0 59416  24462.000000  0    5948763.008  -1629251.819  -3077346.682
10 0 59416  24582.000000  0    5460427.499  -1683875.453  -3855995.328
10 0 59416  24702.000000  0    4876424.821  -1699803.883  -4567046.409
10 0 59416  24822.000000  0    4207704.627  -1675212.772  -5198119.404
10 0 59416  24942.000000  0    3466688.708  -1609186.197  -5738257.453
10 0 59416  25062.000000  0    2667031.616  -1501752.773  -6178107.624
10 0 59416  25182.000000  0    1823365.184  -1353900.957  -6510071.759
10 0 59416  25302.000000  0     951029.497  -1167573.982  -6728427.512
10 0 59416  25422.000000  0      65796.024   -945645.747  -6829416.609
10 0 59416  25542.000000  0    -816412.572   -691876.917  -6811302.254
10 0 59416  25662.000000  0   -1679801.992   -410852.500  -6674395.853
10 0 59416  25782.000000  0   -2508983.102   -107900.765  -6421051.845
10 0 59416  25902.000000  0   -3289239.740    211004.318  -6055630.599
10 0 59416  26022.000000  0   -4006785.576    539356.450  -5584432.395
10 0 59416  26142.000000  0   -4649008.392    870244.590  -5015599.340
10 0 59416  26262.000000  0   -5204695.302   1196492.365  -4358986.846
10 0 59416  26382.000000  0   -5664237.160   1510809.020  -3626004.222
10 0 59416  26502.000000  0   -6019804.721   1805947.060  -2829424.684
10 0 59416  26622.000000  0   -6265493.848   2074862.968  -1983168.439
10 0 59416  26742.000000  0   -6397435.794   2310878.393  -1102061.574
10 0 59416  26862.000000  0   -6413868.899   2507837.524   -201573.941
10 0 59416  26982.000000  0   -6315168.336   2660255.819    702458.761
10 0 59416  27102.000000  0   -6103832.035   2763456.874   1594121.537
10 0 59416  27222.000000  0   -5784423.776   2813694.039   2457709.403
10 0 59416  27342.000000  0   -5363474.210   2808252.408   3278012.478
10 0 59416  27462.000000  0   -4849343.685   2745529.110   4040591.510
10 0 59416  27582.000000  0   -4252048.467   2625089.412   4732036.554
10 0 59416  27702.000000  0   -3583057.762   2447698.512   5340203.391
10 0 59416  27822.000000  0   -2855066.241   2215328.607   5854425.603
10 0 59416  27942.000000  0   -2081745.449   1931140.799   6265698.575
10 0 59416  28062.000000  0   -1277480.782   1599441.854   6566831.576
10 0 59416  28182.000000  0    -457100.021   1225617.473   6752566.132
10 0 59416  28302.000000  0     364400.137    816043.406   6819661.350
10 0 59416  28422.000000  0    1172127.358    377976.209   6766946.816
10 0 59416  28542.000000  0    1951562.292    -80574.739   6595341.555
10 0 59416  28662.000000  0    2688818.440   -550992.851   6307839.864
10 0 59416  28782.000000  0    3370890.121  -1024215.371   5909463.290
10 0 59416  28902.000000  0    3985884.986  -1490906.640   5407178.368
10 0 59416  29022.000000  0    4523235.499  -1941641.912   4809780.132
10 0 59416  29142.000000  0    4973886.187  -2367097.147   4127744.424
10 0 59416  29262.000000  0    5330454.978  -2758242.287   3373049.259
10 0 59416  29382.000000  0    5587362.579  -3106533.302   2558965.047
10 0 59416  29502.000000  0    5740925.311  -3404097.861   1699819.536
10 0 59416  29622.000000  0    5789411.700  -3643911.494    810742.410
10 0 59416  29742.000000  0    5733059.536  -3819958.553    -92608.472
10 0 59416  29862.000000  0    5574053.475  -3927373.892   -994330.677
10 0 59416  29982.000000  0    5316462.620  -3962561.492  -1878567.051
10 0 59416  30102.000000  0    4966140.141  -3923286.333  -2729792.446
10 0 59416  30222.000000  0    4530588.085  -3808739.066  -3533091.788
10 0 59416  30342.000000  0    4018791.263  -3619571.016  -4274424.124
10 0 59416  30462.000000  0    3441024.935  -3357899.616  -4940866.672
10 0 59416  30582.000000  0    2808641.684  -3027283.933  -5520834.989
10 0 59416  30702.000000  0    2133843.362  -2632672.853  -6004274.817
10 0 59416  30822.000000  0    1429444.033  -2180328.356  -6382826.090
10 0 59416  30942.000000  0     708626.121  -1677722.796  -6649958.360
10 0 59416  31062.000000  0     -15304.817  -1133412.855  -6801072.521
10 0 59416  31182.000000  0    -729161.363   -556894.517  -6833570.579
10 0 59416  31302.000000  0   -1420108.465     41559.503  -6746894.954
10 0 59416  31422.000000  0   -2075889.144    651078.465  -6542536.508
10 0 59416  31542.000000  0   -2685036.788   1260385.863  -6224011.317
10 0 59416  31662.000000  0   -3237071.832   1858002.793  -5796806.955
10 0 59416  31782.000000  0   -3722681.637   2432459.867  -5268298.817
10 0 59416  31902.000000  0   -4133881.332   2972515.497  -4647634.649
10 0 59416  32022.000000  0   -4464150.688   3467375.690  -3945586.192
10 0 59416  32142.000000  0   -4708543.319   3906911.059  -3174371.865
10 0 59416  32262.000000  0   -4863767.844   4281867.312  -2347451.759
10 0 59416  32382.000000  0   -4928237.456   4584063.099  -1479296.267
10 0 59416  32502.000000  0   -4902086.937   4806571.416   -585133.220
10 0 59416  32622.000000  0   -4787155.172   4943879.228    319323.637
10 0 59416  32742.000000  0   -4586931.955   4992020.563   1218158.033
10 0 59416  32862.000000  0   -4306472.312   4948678.178   2095540.889
10 0 59416  32982.000000  0   -3952276.958   4813251.585   2936018.884
10 0 59416  33102.000000  0   -3532144.183   4586890.062   3724794.060
10 0 59416  33222.000000  0   -3054997.999   4272490.387   4447989.396
10 0 59416  33342.000000  0   -2530696.659   3874659.639   5092896.101
10 0 59416  33462.000000  0   -1969825.339   3399643.230   5648197.197
10 0 59416  33582.000000  0   -1383478.782   2855220.691   6104163.096
10 0 59416  33702.000000  0    -783038.767   2250571.839   6452816.477
10 0 59416  33822.000000  0    -179952.674   1596117.192   6688064.222
10 0 59416  33942.000000  0     414484.150    903335.921   6805798.811
10 0 59416  34062.000000  0     989339.628    184563.141   6803964.902
10 0 59416  34182.000000  0    1534244.744   -547228.750   6682592.950
10 0 59416  34302.000000  0    2039579.860  -1278663.643   6443799.569
10 0 59416  34422.000000  0    2496644.514  -1996205.278   6091753.179
10 0 59416  34542.000000  0    2897809.045  -2686408.043   5632606.814
10 0 59416  34662.000000  0    3236644.651  -3336170.426   5074395.904
10 0 59416  34782.000000  0    3508029.200  -3932986.771   4426903.717
10 0 59416  34902.000000  0    3708228.261  -4465192.762   3701495.067
10 0 59416  35022.000000  0    3834947.930  -4922199.487   2910919.088
10 0 59416  35142.000000  0    3887358.465  -5294710.317   2069085.218
10 0 59416  35262.000000  0    3866088.139  -5574915.462   1190815.348
10 0 59416  35382.000000  0    3773186.729  -5756658.640    291576.856
10 0 59416  35502.000000  0    3612060.137  -5835571.603   -612796.322
10 0 59416  35622.000000  0    3387377.760  -5809174.889  -1506391.841
10 0 59416  35742.000000  0    3104952.686  -5676938.647  -2373507.756
10 0 59416  35862.000000  0    2771601.088  -5440305.000  -3198935.096
10 0 59416  35982.000000  0    2394982.389  -5102669.977  -3968229.808
10 0 59416  36102.000000  0    1983424.809  -4669326.288  -4667966.158
10 0 59416  36222.000000  0    1545742.020  -4147369.836  -5285966.875
10 0 59416  36342.000000  0    1091046.435  -3545573.398  -5811507.559
10 0 59416  36462.000000  0     628561.465  -2874230.985  -6235492.993
10 0 59416  36582.000000  0     167436.668  -2144976.267  -6550603.457
10 0 59416  36702.000000  0    -283429.781  -1370578.147  -6751410.046
10 0 59416  36822.000000  0    -715558.065   -564717.670  -6834458.760
10 0 59416  36942.000000  0   -1121041.495    258250.398  -6798323.162
10 0 59416  37062.000000  0   -1492687.755   1083547.109  -6643625.224
10 0 59416  37182.000000  0   -1824143.464   1896228.025  -6373025.694
10 0 59416  37302.000000  0   -2110000.604   2681446.945  -5991183.508
10 0 59416  37422.000000  0   -2345884.918   3424723.018  -5504685.222
10 0 59416  37542.000000  0   -2528523.375   4112206.361  -4921942.196
10 0 59416  37662.000000  0   -2655790.840   4730938.639  -4253056.849
10 0 59416  37782.000000  0   -2726733.714   5269102.626  -3509656.659
10 0 59416  37902.000000  0   -2741569.218   5716254.031  -2704699.717
10 0 59416  38022.000000  0   -2701661.300   6063533.681  -1852255.692
10 0 59416  38142.000000  0   -2609472.654   6303853.805   -967260.706
10 0 59416  38262.000000  0   -2468493.289   6432049.923    -65253.545
10 0 59416  38382.000000  0   -2283148.945   6444999.882    837900.915
10 0 59416  38502.000000  0   -2058688.486   6341702.534   1726301.866
10 0 59416  38622.000000  0   -1801052.668   6123309.294   2584303.225
10 0 59416  38742.000000  0   -1516730.048   5793112.607   3396796.903
99
